STARLINK-36538          
1 67512U 26012V   26036.25003472 -.01873676  00000+0 -14052-1 0  9994
2 67512  42.9986 140.1961 0001264 266.2701 352.8888 15.74949307  3857
STARLINK-36531          
1 67513U 26012W   26036.25003472 -.01880910  00000+0 -13571-1 0  9999
2 67513  42.9984 140.1730 0001296 266.8441   1.7374 15.75833866  3798
STARLINK-36530          
1 67514U 26012X   26036.25003472 -.01876654  00000+0 -14123-1 0  9994
2 67514  42.9985 140.1711 0001172 267.3530   1.6358 15.74878745  3792
STARLINK-36543          
1 67515U 26012Y   26036.25003472 -.01873662  00000+0 -14732-1 0  9997
2 67515  42.9990 140.1739 0001281 267.1782   0.6292 15.73874139  3795
STARLINK-36537          
1 67516U 26012Z   26036.25003472 -.01873033  00000+0 -13457-1 0  9993
2 67516  42.9982 140.1098 0001280 274.0754  18.9935 15.75915624  3793
STARLINK-36544          
1 67517U 26012AA  26036.25003472  .22679230  00000+0  83687-1 0  9990
2 67517  43.0028 139.9695 0176572 217.3371  74.3485 15.66319036  3856
STARLINK-36412          
1 67518U 26012AB  26036.25003472 -.01869519  00000+0 -13353-1 0  9994
2 67518  42.9982 140.0663 0001422 269.4687  41.1295 15.76038043  3792
STARLINK-36415          
1 67519U 26012AC  26036.25003472 -.01873239  00000+0 -13265-1 0  9991
2 67519  42.9984 140.0464 0001424 268.7341  49.2896 15.76238306  4011
STARLINK-36547          
1 67520U 26012AD  26036.25003472 -.01872611  00000+0 -13485-1 0  9990
2 67520  42.9978 140.0788 0001457 268.9397  36.0876 15.75860284  3795
STARLINK-36444          
1 67521U 26012AE  26036.25003472 -.01874223  00000+0 -14534-1 0  9998
2 67521  42.9987 140.1189 0001362 272.1011  17.2837 15.74190714  3798
HULIANWANG DIGUI-146    
1 67522U 26013A   26035.77371272  .00000024  00000+0  14118-3 0  9999
2 67522  50.0369 119.0934 0013693 220.0273 139.9617 13.88013425  2308
HULIANWANG DIGUI-147    
1 67523U 26013B   26036.06012253  .00000016  00000+0  13454-3 0  9997
2 67523  50.0050 117.9761 0000369  13.5839 346.5068 13.87953127  2341
