CCSDS_OMM_VERS = 2.0
CREATION_DATE  = 
ORIGINATOR     = 

OBJECT_NAME    = STARLINK-36538
OBJECT_ID      = 2026-012V
CENTER_NAME    = EARTH
REF_FRAME      = TEME
TIME_SYSTEM    = UTC
MEAN_ELEMENT_THEORY = SGP/SGP4

EPOCH          = 2026-02-05T06:00:02.999808
MEAN_MOTION    = 15.74949307
ECCENTRICITY   = .00012649
INCLINATION    = 42.9986
RA_OF_ASC_NODE = 140.1961
ARG_OF_PERICENTER = 266.2701
MEAN_ANOMALY   = 352.8888

EPHEMERIS_TYPE = 0
CLASSIFICATION_TYPE = U
NORAD_CAT_ID   = 67512
ELEMENT_SET_NO = 999
REV_AT_EPOCH   = 385
BSTAR          = -.14052172E-1
MEAN_MOTION_DOT = -.1873676E-1
MEAN_MOTION_DDOT = 0

CCSDS_OMM_VERS = 2.0
CREATION_DATE  = 
ORIGINATOR     = 

OBJECT_NAME    = STARLINK-36531
OBJECT_ID      = 2026-012W
CENTER_NAME    = EARTH
REF_FRAME      = TEME
TIME_SYSTEM    = UTC
MEAN_ELEMENT_THEORY = SGP/SGP4

EPOCH          = 2026-02-05T06:00:02.999808
MEAN_MOTION    = 15.75833866
ECCENTRICITY   = .00012969
INCLINATION    = 42.9984
RA_OF_ASC_NODE = 140.1730
ARG_OF_PERICENTER = 266.8441
MEAN_ANOMALY   = 1.7374

EPHEMERIS_TYPE = 0
CLASSIFICATION_TYPE = U
NORAD_CAT_ID   = 67513
ELEMENT_SET_NO = 999
REV_AT_EPOCH   = 379
BSTAR          = -.13571035E-1
MEAN_MOTION_DOT = -.188091E-1
MEAN_MOTION_DDOT = 0

CCSDS_OMM_VERS = 2.0
CREATION_DATE  = 
ORIGINATOR     = 

OBJECT_NAME    = STARLINK-36530
OBJECT_ID      = 2026-012X
CENTER_NAME    = EARTH
REF_FRAME      = TEME
TIME_SYSTEM    = UTC
MEAN_ELEMENT_THEORY = SGP/SGP4

EPOCH          = 2026-02-05T06:00:02.999808
MEAN_MOTION    = 15.74878745
ECCENTRICITY   = .00011729
INCLINATION    = 42.9985
RA_OF_ASC_NODE = 140.1711
ARG_OF_PERICENTER = 267.3530
MEAN_ANOMALY   = 1.6358

EPHEMERIS_TYPE = 0
CLASSIFICATION_TYPE = U
NORAD_CAT_ID   = 67514
ELEMENT_SET_NO = 999
REV_AT_EPOCH   = 379
BSTAR          = -.1412258E-1
MEAN_MOTION_DOT = -.1876654E-1
MEAN_MOTION_DDOT = 0

CCSDS_OMM_VERS = 2.0
CREATION_DATE  = 
ORIGINATOR     = 

OBJECT_NAME    = STARLINK-36543
OBJECT_ID      = 2026-012Y
CENTER_NAME    = EARTH
REF_FRAME      = TEME
TIME_SYSTEM    = UTC
MEAN_ELEMENT_THEORY = SGP/SGP4

EPOCH          = 2026-02-05T06:00:02.999808
MEAN_MOTION    = 15.73874139
ECCENTRICITY   = .00012812
INCLINATION    = 42.9990
RA_OF_ASC_NODE = 140.1739
ARG_OF_PERICENTER = 267.1782
MEAN_ANOMALY   = 0.6292

EPHEMERIS_TYPE = 0
CLASSIFICATION_TYPE = U
NORAD_CAT_ID   = 67515
ELEMENT_SET_NO = 999
REV_AT_EPOCH   = 379
BSTAR          = -.14732337E-1
MEAN_MOTION_DOT = -.1873662E-1
MEAN_MOTION_DDOT = 0

CCSDS_OMM_VERS = 2.0
CREATION_DATE  = 
ORIGINATOR     = 

OBJECT_NAME    = STARLINK-36537
OBJECT_ID      = 2026-012Z
CENTER_NAME    = EARTH
REF_FRAME      = TEME
TIME_SYSTEM    = UTC
MEAN_ELEMENT_THEORY = SGP/SGP4

EPOCH          = 2026-02-05T06:00:02.999808
MEAN_MOTION    = 15.75915624
ECCENTRICITY   = .00012802
INCLINATION    = 42.9982
RA_OF_ASC_NODE = 140.1098
ARG_OF_PERICENTER = 274.0754
MEAN_ANOMALY   = 18.9935

EPHEMERIS_TYPE = 0
CLASSIFICATION_TYPE = U
NORAD_CAT_ID   = 67516
ELEMENT_SET_NO = 999
REV_AT_EPOCH   = 379
BSTAR          = -.13456534E-1
MEAN_MOTION_DOT = -.1873033E-1
MEAN_MOTION_DDOT = 0

CCSDS_OMM_VERS = 2.0
CREATION_DATE  = 
ORIGINATOR     = 

OBJECT_NAME    = STARLINK-36544
OBJECT_ID      = 2026-012AA
CENTER_NAME    = EARTH
REF_FRAME      = TEME
TIME_SYSTEM    = UTC
MEAN_ELEMENT_THEORY = SGP/SGP4

EPOCH          = 2026-02-05T06:00:02.999808
MEAN_MOTION    = 15.66319036
ECCENTRICITY   = .01765722
INCLINATION    = 43.0028
RA_OF_ASC_NODE = 139.9695
ARG_OF_PERICENTER = 217.3371
MEAN_ANOMALY   = 74.3485

EPHEMERIS_TYPE = 0
CLASSIFICATION_TYPE = U
NORAD_CAT_ID   = 67517
ELEMENT_SET_NO = 999
REV_AT_EPOCH   = 385
BSTAR          = .83686587E-1
MEAN_MOTION_DOT = .2267923E+0
MEAN_MOTION_DDOT = 0

CCSDS_OMM_VERS = 2.0
CREATION_DATE  = 
ORIGINATOR     = 

OBJECT_NAME    = STARLINK-36412
OBJECT_ID      = 2026-012AB
CENTER_NAME    = EARTH
REF_FRAME      = TEME
TIME_SYSTEM    = UTC
MEAN_ELEMENT_THEORY = SGP/SGP4

EPOCH          = 2026-02-05T06:00:02.999808
MEAN_MOTION    = 15.76038043
ECCENTRICITY   = .00014228
INCLINATION    = 42.9982
RA_OF_ASC_NODE = 140.0663
ARG_OF_PERICENTER = 269.4687
MEAN_ANOMALY   = 41.1295

EPHEMERIS_TYPE = 0
CLASSIFICATION_TYPE = U
NORAD_CAT_ID   = 67518
ELEMENT_SET_NO = 999
REV_AT_EPOCH   = 379
BSTAR          = -.13353267E-1
MEAN_MOTION_DOT = -.1869519E-1
MEAN_MOTION_DDOT = 0

CCSDS_OMM_VERS = 2.0
CREATION_DATE  = 
ORIGINATOR     = 

OBJECT_NAME    = STARLINK-36415
OBJECT_ID      = 2026-012AC
CENTER_NAME    = EARTH
REF_FRAME      = TEME
TIME_SYSTEM    = UTC
MEAN_ELEMENT_THEORY = SGP/SGP4

EPOCH          = 2026-02-05T06:00:02.999808
MEAN_MOTION    = 15.76238306
ECCENTRICITY   = .00014249
INCLINATION    = 42.9984
RA_OF_ASC_NODE = 140.0464
ARG_OF_PERICENTER = 268.7341
MEAN_ANOMALY   = 49.2896

EPHEMERIS_TYPE = 0
CLASSIFICATION_TYPE = U
NORAD_CAT_ID   = 67519
ELEMENT_SET_NO = 999
REV_AT_EPOCH   = 401
BSTAR          = -.13264566E-1
MEAN_MOTION_DOT = -.1873239E-1
MEAN_MOTION_DDOT = 0

CCSDS_OMM_VERS = 2.0
CREATION_DATE  = 
ORIGINATOR     = 

OBJECT_NAME    = STARLINK-36547
OBJECT_ID      = 2026-012AD
CENTER_NAME    = EARTH
REF_FRAME      = TEME
TIME_SYSTEM    = UTC
MEAN_ELEMENT_THEORY = SGP/SGP4

EPOCH          = 2026-02-05T06:00:02.999808
MEAN_MOTION    = 15.75860284
ECCENTRICITY   = .00014578
INCLINATION    = 42.9978
RA_OF_ASC_NODE = 140.0788
ARG_OF_PERICENTER = 268.9397
MEAN_ANOMALY   = 36.0876

EPHEMERIS_TYPE = 0
CLASSIFICATION_TYPE = U
NORAD_CAT_ID   = 67520
ELEMENT_SET_NO = 999
REV_AT_EPOCH   = 379
BSTAR          = -.1348498E-1
MEAN_MOTION_DOT = -.1872611E-1
MEAN_MOTION_DDOT = 0

CCSDS_OMM_VERS = 2.0
CREATION_DATE  = 
ORIGINATOR     = 

OBJECT_NAME    = STARLINK-36444
OBJECT_ID      = 2026-012AE
CENTER_NAME    = EARTH
REF_FRAME      = TEME
TIME_SYSTEM    = UTC
MEAN_ELEMENT_THEORY = SGP/SGP4

EPOCH          = 2026-02-05T06:00:02.999808
MEAN_MOTION    = 15.74190714
ECCENTRICITY   = .00013629
INCLINATION    = 42.9987
RA_OF_ASC_NODE = 140.1189
ARG_OF_PERICENTER = 272.1011
MEAN_ANOMALY   = 17.2837

EPHEMERIS_TYPE = 0
CLASSIFICATION_TYPE = U
NORAD_CAT_ID   = 67521
ELEMENT_SET_NO = 999
REV_AT_EPOCH   = 379
BSTAR          = -.14533749E-1
MEAN_MOTION_DOT = -.1874223E-1
MEAN_MOTION_DDOT = 0

CCSDS_OMM_VERS = 2.0
CREATION_DATE  = 
ORIGINATOR     = 

OBJECT_NAME    = HULIANWANG DIGUI-146
OBJECT_ID      = 2026-013A
CENTER_NAME    = EARTH
REF_FRAME      = TEME
TIME_SYSTEM    = UTC
MEAN_ELEMENT_THEORY = SGP/SGP4

EPOCH          = 2026-02-04T18:34:08.779008
MEAN_MOTION    = 13.88013425
ECCENTRICITY   = .00136935
INCLINATION    = 50.0369
RA_OF_ASC_NODE = 119.0934
ARG_OF_PERICENTER = 220.0273
MEAN_ANOMALY   = 139.9617

EPHEMERIS_TYPE = 0
CLASSIFICATION_TYPE = U
NORAD_CAT_ID   = 67522
ELEMENT_SET_NO = 999
REV_AT_EPOCH   = 230
BSTAR          = .14118042E-3
MEAN_MOTION_DOT = .24E-6
MEAN_MOTION_DDOT = 0

CCSDS_OMM_VERS = 2.0
CREATION_DATE  = 
ORIGINATOR     = 

OBJECT_NAME    = HULIANWANG DIGUI-147
OBJECT_ID      = 2026-013B
CENTER_NAME    = EARTH
REF_FRAME      = TEME
TIME_SYSTEM    = UTC
MEAN_ELEMENT_THEORY = SGP/SGP4

EPOCH          = 2026-02-05T01:26:34.586592
MEAN_MOTION    = 13.87953127
ECCENTRICITY   = .00003697
INCLINATION    = 50.0050
RA_OF_ASC_NODE = 117.9761
ARG_OF_PERICENTER = 13.5839
MEAN_ANOMALY   = 346.5068

EPHEMERIS_TYPE = 0
CLASSIFICATION_TYPE = U
NORAD_CAT_ID   = 67523
ELEMENT_SET_NO = 999
REV_AT_EPOCH   = 234
BSTAR          = .13453514E-3
MEAN_MOTION_DOT = .16E-6
MEAN_MOTION_DDOT = 0

